{
  "type": "FeatureCollection",
  "features": [
    {
      "type": "Feature",
      "properties": {
        "norad_id": 43783,
        "name": "KAZSTSAT",
        "group": "resource",
        "lat": 75.28357080906686,
        "lon": -122.86096215523884,
        "alt_km": 565.4939697448963,
        "timestamp": "2025-12-18T07:01:54.245405+00:00",
        "meta_object_name": "KAZSTSAT",
        "meta_object_id": "2018-099AB",
        "meta_epoch": "2025-12-17T16:09:36.328896",
        "meta_mean_motion": 14.99362131,
        "meta_eccentricity": 0.00059123,
        "meta_inclination": 97.4541,
        "meta_ra_of_asc_node": 26.6464,
        "meta_arg_of_pericenter": 308.3167,
        "meta_mean_anomaly": 51.7525,
        "meta_ephemeris_type": 0,
        "meta_classification_type": "U",
        "meta_norad_cat_id": 43783,
        "meta_element_set_no": 999,
        "meta_rev_at_epoch": 38410,
        "meta_bstar": 4.6014093e-05,
        "meta_mean_motion_dot": 5.07e-06,
        "meta_mean_motion_ddot": 0,
        "tle_line1": "1 43783U 18099AB  25351.67333714  .00000507  00000+0  46014-4 0  9992",
        "tle_line2": "2 43783  97.4541  26.6464 0005912 308.3167  51.7525 14.99362131384100"
      },
      "geometry": {
        "type": "Point",
        "coordinates": [
          -122.86096215523884,
          75.28357080906686
        ]
      }
    },
    {
      "type": "Feature",
      "properties": {
        "norad_id": 43831,
        "name": "SAUDISAT 5A",
        "group": "resource",
        "lat": -38.832462398361734,
        "lon": 58.329160152835726,
        "alt_km": 496.2592847590304,
        "timestamp": "2025-12-18T07:01:54.245415+00:00",
        "meta_object_name": "SAUDISAT 5A",
        "meta_object_id": "2018-102A",
        "meta_epoch": "2025-12-17T23:19:58.899072",
        "meta_mean_motion": 15.25720848,
        "meta_eccentricity": 0.00115318,
        "meta_inclination": 97.3352,
        "meta_ra_of_asc_node": 52.0627,
        "meta_arg_of_pericenter": 60.1708,
        "meta_mean_anomaly": 300.0675,
        "meta_ephemeris_type": 0,
        "meta_classification_type": "U",
        "meta_norad_cat_id": 43831,
        "meta_element_set_no": 999,
        "meta_rev_at_epoch": 38802,
        "meta_bstar": 0.00020517373,
        "meta_mean_motion_dot": 5.169e-05,
        "meta_mean_motion_ddot": 0,
        "tle_line1": "1 43831U 18102A   25351.97220948  .00005169  00000+0  20517-3 0  9996",
        "tle_line2": "2 43831  97.3352  52.0627 0011531  60.1708 300.0675 15.25720848388029"
      },
      "geometry": {
        "type": "Point",
        "coordinates": [
          58.329160152835726,
          -38.832462398361734
        ]
      }
    },
    {
      "type": "Feature",
      "properties": {
        "norad_id": 43833,
        "name": "SAUDISAT 5B",
        "group": "resource",
        "lat": 19.89470699899894,
        "lon": 52.450324743375695,
        "alt_km": 481.37896013317004,
        "timestamp": "2025-12-18T07:01:54.245425+00:00",
        "meta_object_name": "SAUDISAT 5B",
        "meta_object_id": "2018-102C",
        "meta_epoch": "2025-12-17T23:04:32.969280",
        "meta_mean_motion": 15.26070728,
        "meta_eccentricity": 0.00122722,
        "meta_inclination": 97.3448,
        "meta_ra_of_asc_node": 54.8001,
        "meta_arg_of_pericenter": 62.3242,
        "meta_mean_anomaly": 297.924,
        "meta_ephemeris_type": 0,
        "meta_classification_type": "U",
        "meta_norad_cat_id": 43833,
        "meta_element_set_no": 999,
        "meta_rev_at_epoch": 38813,
        "meta_bstar": 0.00018942581,
        "meta_mean_motion_dot": 4.818e-05,
        "meta_mean_motion_ddot": 0,
        "tle_line1": "1 43833U 18102C   25351.96149270  .00004818  00000+0  18943-3 0  9995",
        "tle_line2": "2 43833  97.3448  54.8001 0012272  62.3242 297.9240 15.26070728388133"
      },
      "geometry": {
        "type": "Point",
        "coordinates": [
          52.450324743375695,
          19.89470699899894
        ]
      }
    },
    {
      "type": "Feature",
      "properties": {
        "norad_id": 44622,
        "name": "GAOFEN-10R",
        "group": "resource",
        "lat": -0.7654672210652455,
        "lon": 119.71289426474691,
        "alt_km": 628.3578671829837,
        "timestamp": "2025-12-18T07:01:54.245435+00:00",
        "meta_object_name": "GAOFEN-10R",
        "meta_object_id": "2019-066A",
        "meta_epoch": "2025-12-17T23:44:30.427584",
        "meta_mean_motion": 14.82809676,
        "meta_eccentricity": 0.00075275,
        "meta_inclination": 98.0284,
        "meta_ra_of_asc_node": 299.516,
        "meta_arg_of_pericenter": 26.7512,
        "meta_mean_anomaly": 333.4088,
        "meta_ephemeris_type": 0,
        "meta_classification_type": "U",
        "meta_norad_cat_id": 44622,
        "meta_element_set_no": 999,
        "meta_rev_at_epoch": 33552,
        "meta_bstar": 0.00016489695,
        "meta_mean_motion_dot": 1.28e-05,
        "meta_mean_motion_ddot": 0,
        "tle_line1": "1 44622U 19066A   25351.98924106  .00001280  00000+0  16490-3 0  9998",
        "tle_line2": "2 44622  98.0284 299.5160 0007527  26.7512 333.4088 14.82809676335525"
      },
      "geometry": {
        "type": "Point",
        "coordinates": [
          119.71289426474691,
          -0.7654672210652455
        ]
      }
    },
    {
      "type": "Feature",
      "properties": {
        "norad_id": 44804,
        "name": "CARTOSAT-3",
        "group": "resource",
        "lat": -10.35462879177467,
        "lon": 53.17811501273337,
        "alt_km": 510.31291795237667,
        "timestamp": "2025-12-18T07:01:54.245446+00:00",
        "meta_object_name": "CARTOSAT-3",
        "meta_object_id": "2019-081A",
        "meta_epoch": "2025-12-17T23:10:24.967200",
        "meta_mean_motion": 15.19194609,
        "meta_eccentricity": 0.00140035,
        "meta_inclination": 97.4586,
        "meta_ra_of_asc_node": 51.4832,
        "meta_arg_of_pericenter": 67.2043,
        "meta_mean_anomaly": 293.0669,
        "meta_ephemeris_type": 0,
        "meta_classification_type": "U",
        "meta_norad_cat_id": 44804,
        "meta_element_set_no": 999,
        "meta_rev_at_epoch": 33595,
        "meta_bstar": 0.00015482105,
        "meta_mean_motion_dot": 3.197e-05,
        "meta_mean_motion_ddot": 0,
        "tle_line1": "1 44804U 19081A   25351.96556675  .00003197  00000+0  15482-3 0  9996",
        "tle_line2": "2 44804  97.4586  51.4832 0014003  67.2043 293.0669 15.19194609335959"
      },
      "geometry": {
        "type": "Point",
        "coordinates": [
          53.17811501273337,
          -10.35462879177467
        ]
      }
    },
    {
      "type": "Feature",
      "properties": {
        "norad_id": 44819,
        "name": "GAOFEN-12 01",
        "group": "resource",
        "lat": 44.16490251582641,
        "lon": -9.234976268232566,
        "alt_km": 624.6059006863161,
        "timestamp": "2025-12-18T07:01:54.245456+00:00",
        "meta_object_name": "GAOFEN-12 01",
        "meta_object_id": "2019-082A",
        "meta_epoch": "2025-12-18T00:20:34.723392",
        "meta_mean_motion": 14.80663575,
        "meta_eccentricity": 0.00016511,
        "meta_inclination": 97.8124,
        "meta_ra_of_asc_node": 358.1569,
        "meta_arg_of_pericenter": 205.6749,
        "meta_mean_anomaly": 154.4382,
        "meta_ephemeris_type": 0,
        "meta_classification_type": "U",
        "meta_norad_cat_id": 44819,
        "meta_element_set_no": 999,
        "meta_rev_at_epoch": 32728,
        "meta_bstar": 6.1866598e-05,
        "meta_mean_motion_dot": 4.25e-06,
        "meta_mean_motion_ddot": 0,
        "tle_line1": "1 44819U 19082A   25352.01429078  .00000425  00000+0  61867-4 0  9996",
        "tle_line2": "2 44819  97.8124 358.1569 0001651 205.6749 154.4382 14.80663575327286"
      },
      "geometry": {
        "type": "Point",
        "coordinates": [
          -9.234976268232566,
          44.16490251582641
        ]
      }
    },
    {
      "type": "Feature",
      "properties": {
        "norad_id": 44873,
        "name": "CSG-1",
        "group": "resource",
        "lat": -5.672357489878097,
        "lon": -7.254854219219277,
        "alt_km": 626.465383200858,
        "timestamp": "2025-12-18T07:01:54.245466+00:00",
        "meta_object_name": "CSG-1",
        "meta_object_id": "2019-092A",
        "meta_epoch": "2025-12-17T23:42:57.722112",
        "meta_mean_motion": 14.8214737,
        "meta_eccentricity": 0.00014965,
        "meta_inclination": 97.8803,
        "meta_ra_of_asc_node": 173.2333,
        "meta_arg_of_pericenter": 86.7838,
        "meta_mean_anomaly": 273.3547,
        "meta_ephemeris_type": 0,
        "meta_classification_type": "U",
        "meta_norad_cat_id": 44873,
        "meta_element_set_no": 999,
        "meta_rev_at_epoch": 32463,
        "meta_bstar": 6.3233652e-05,
        "meta_mean_motion_dot": 4.51e-06,
        "meta_mean_motion_ddot": 0,
        "tle_line1": "1 44873U 19092A   25351.98816808  .00000451  00000+0  63234-4 0  9992",
        "tle_line2": "2 44873  97.8803 173.2333 0001496  86.7838 273.3547 14.82147370324631"
      },
      "geometry": {
        "type": "Point",
        "coordinates": [
          -7.254854219219277,
          -5.672357489878097
        ]
      }
    }
  ]
}